stk.v.4.3 

BEGIN Ephemeris 
 
NumberOfEphemerisPoints		146 
ScenarioEpoch	    4 Sep 2020  0:20:59.398359061 
InterpolationMethod		Lagrange 
InterpolationOrder		5 
CentralBody				Earth 
CoordinateSystem			TEME 
CoordinateSystemEpoch	  4 Sep 2020  0:20:59.398359061 
DistanceUnit			Kilometers 
 
EphemerisTimePosVel 
 
       0.00000000   -6554.83585786    2877.87471898       0.02804166 -0.179658475 -0.432314254  7.448870412
 END Ephemeris 
